TANDEM-X
1 36605U 10030A   18093.47695975  .00001534  00000-0  76199-4 0  9996
2 36605  97.4443 101.9856 0002052  53.9922 101.0490 15.19165557431684
